{"fetched_at":"2026-03-29T02:12:04Z","count":15717,"tles":[{"name":"COSMOS 2477 (745)","line1":"1 37868U 11064B   26087.25601953  .00000043  00000+0  00000+0 0  9993","line2":"2 37868  65.2312  75.6808 0022004 243.8544 293.4081  2.13102715112031","category":"Other"}]}